IRIDIUM 7               
1 24793U 97020B   25023.64202527  .00000810  00000+0  27376-3 0  9999
2 24793  86.3934 237.4361 0001751  93.4295 266.7101 14.35728194451155
IRIDIUM 5               
1 24795U 97020D   25023.84464902  .00008979  00000+0  78078-3 0  9999
2 24795  86.3941 150.1734 0111680 296.1477  62.8296 14.92080280463925
IRIDIUM 4               
1 24796U 97020E   25023.64698716  .00000764  00000+0  25311-3 0  9996
2 24796  86.3932 234.4050 0001858  86.6791 273.4618 14.36638343451718
IRIDIUM 914             
1 24836U 97030A   25023.70443898  .00000987  00000+0  30367-3 0  9992
2 24836  86.3908 243.4221 0002126  38.7591 321.3761 14.40616580586323
IRIDIUM 16              
1 24841U 97030F   25023.72665917  .00000939  00000+0  30109-3 0  9999
2 24841  86.4008 265.9717 0002852 135.1573 224.9856 14.38480602446237
IRIDIUM 911             
1 24842U 97030G   25023.70644549  .00001266  00000+0  34036-3 0  9993
2 24842  86.4433 264.8986 0012802 213.3685 146.6712 14.47317599454183
IRIDIUM 17              
1 24870U 97034B   25023.83356742  .00001132  00000+0  37103-3 0  9997
2 24870  86.3962 295.4874 0003512 102.4601 257.6989 14.37593950442845
IRIDIUM 920             
1 24871U 97034C   25023.76114865  .00000995  00000+0  30172-3 0  9993
2 24871  86.3955 275.0634 0010822 188.7362 171.3651 14.41298989445771
